[{"OBJECT_NAME":"GEESAT-1 06","OBJECT_ID":"2022-058F","EPOCH":"2026-03-09T21:42:30.443328","MEAN_MOTION":14.8101583,"ECCENTRICITY":0.00346377,"INCLINATION":50.0048,"RA_OF_ASC_NODE":301.1801,"ARG_OF_PERICENTER":126.8919,"MEAN_ANOMALY":233.5201,"EPHEMERIS_TYPE":0,"CLASSIFICATION_TYPE":"U","NORAD_CAT_ID":52790,"ELEMENT_SET_NO":999,"REV_AT_EPOCH":20521,"BSTAR":0.00037629546,"MEAN_MOTION_DOT":2.747e-5,"MEAN_MOTION_DDOT":0},{"OBJECT_NAME":"GAOFEN-12 04","OBJECT_ID":"2023-123A","EPOCH":"2026-03-09T23:07:49.236384","MEAN_MOTION":14.80004662,"ECCENTRICITY":0.00016529,"INCLINATION":97.9129,"RA_OF_ASC_NODE":348.4218,"ARG_OF_PERICENTER":75.8828,"MEAN_ANOMALY":284.2567,"EPHEMERIS_TYPE":0,"CLASSIFICATION_TYPE":"U","NORAD_CAT_ID":57654,"ELEMENT_SET_NO":999,"REV_AT_EPOCH":13795,"BSTAR":0.00022872409,"MEAN_MOTION_DOT":1.679e-5,"MEAN_MOTION_DDOT":0}]
